[{"OBJECT_NAME":"STARLINK-35728","OBJECT_ID":"2025-265AE","EPOCH":"2026-03-09T22:28:28.725312","MEAN_MOTION":15.27567523,"ECCENTRICITY":8.01e-5,"INCLINATION":42.9973,"RA_OF_ASC_NODE":276.3177,"ARG_OF_PERICENTER":237.6519,"MEAN_ANOMALY":122.4255,"EPHEMERIS_TYPE":0,"CLASSIFICATION_TYPE":"U","NORAD_CAT_ID":66544,"ELEMENT_SET_NO":999,"REV_AT_EPOCH":1715,"BSTAR":0.0010536936,"MEAN_MOTION_DOT":0.00028836,"MEAN_MOTION_DDOT":0},{"OBJECT_NAME":"SIMSAT 1","OBJECT_ID":"2000-026A","EPOCH":"2026-03-09T17:22:54.646176","MEAN_MOTION":15.27666538,"ECCENTRICITY":0.00084816,"INCLINATION":86.3501,"RA_OF_ASC_NODE":180.5413,"ARG_OF_PERICENTER":14.8337,"MEAN_ANOMALY":345.3157,"EPHEMERIS_TYPE":0,"CLASSIFICATION_TYPE":"U","NORAD_CAT_ID":26365,"ELEMENT_SET_NO":999,"REV_AT_EPOCH":42720,"BSTAR":0.00013499313,"MEAN_MOTION_DOT":3.69e-5,"MEAN_MOTION_DDOT":0}]
